{
    "links": {
        "self": "http://www.neowsapp.com/rest/v1/neo/3831065?api_key=iIulBulltgU6a56xZRHN4H3l9WmuAYTsLGpBGhQ2"
    },
    "id": "3831065",
    "neo_reference_id": "3831065",
    "name": "(2018 SZ2)",
    "designation": "2018 SZ2",
    "nasa_jpl_url": "http://ssd.jpl.nasa.gov/sbdb.cgi?sstr=3831065",
    "absolute_magnitude_h": 22.4,
    "estimated_diameter": {
        "kilometers": {
            "estimated_diameter_min": 0.0880146521,
            "estimated_diameter_max": 0.1968067451
        },
        "meters": {
            "estimated_diameter_min": 88.0146520901,
            "estimated_diameter_max": 196.8067450894
        },
        "miles": {
            "estimated_diameter_min": 0.0546897524,
            "estimated_diameter_max": 0.122290004
        },
        "feet": {
            "estimated_diameter_min": 288.7619911632,
            "estimated_diameter_max": 645.6914415591
        }
    },
    "is_potentially_hazardous_asteroid": false,
    "close_approach_data": [
        {
            "close_approach_date": "2008-10-13",
            "close_approach_date_full": "2008-Oct-13 18:53",
            "epoch_date_close_approach": 1223923980000,
            "relative_velocity": {
                "kilometers_per_second": "16.5291002154",
                "kilometers_per_hour": "59504.7607756171",
                "miles_per_hour": "36973.9442719383"
            },
            "miss_distance": {
                "astronomical": "0.4671725159",
                "lunar": "181.7301086851",
                "kilometers": "69888013.301181133",
                "miles": "43426397.7565323154"
            },
            "orbiting_body": "Earth"
        },
        {
            "close_approach_date": "2018-09-22",
            "close_approach_date_full": "2018-Sep-22 01:00",
            "epoch_date_close_approach": 1537578000000,
            "relative_velocity": {
                "kilometers_per_second": "7.2447906091",
                "kilometers_per_hour": "26081.2461929004",
                "miles_per_hour": "16205.8721135831"
            },
            "miss_distance": {
                "astronomical": "0.1825240652",
                "lunar": "71.0018613628",
                "kilometers": "27305211.377661124",
                "miles": "16966671.5950625512"
            },
            "orbiting_body": "Earth"
        }
    ],
    "orbital_data": {
        "orbit_id": "13",
        "orbit_determination_date": "2018-12-04 06:54:39",
        "first_observation_date": "2018-09-29",
        "last_observation_date": "2018-11-07",
        "data_arc_in_days": 39,
        "observations_used": 73,
        "orbit_uncertainty": "7",
        "minimum_orbit_intersection": ".118096",
        "jupiter_tisserand_invariant": "3.471",
        "epoch_osculation": "2459000.5",
        "eccentricity": ".4979705107505444",
        "semi_major_axis": "2.225740434564374",
        "inclination": "2.324726942100131",
        "ascending_node_longitude": "269.2126795768717",
        "orbital_period": "1212.85867900091",
        "perihelion_distance": "1.117387333566214",
        "perihelion_argument": "77.56787412285402",
        "aphelion_distance": "3.334093535562534",
        "perihelion_time": "2459591.958260796107",
        "mean_anomaly": "184.4437067787692",
        "mean_motion": ".2968194120493489",
        "equinox": "J2000",
        "orbit_class": {
            "orbit_class_type": "AMO",
            "orbit_class_description": "Near-Earth asteroid orbits similar to that of 1221 Amor",
            "orbit_class_range": "1.017 AU < q (perihelion) < 1.3 AU"
        }
    },
    "is_sentry_object": false
}